[{"OBJECT_NAME":"ZIYUAN 1-02C (ZY 1-02C)","OBJECT_ID":"2011-079A","EPOCH":"2026-03-10T00:21:45.280224","MEAN_MOTION":14.38123973,"ECCENTRICITY":0.00053834,"INCLINATION":98.4167,"RA_OF_ASC_NODE":138.3624,"ARG_OF_PERICENTER":238.9134,"MEAN_ANOMALY":241.9717,"EPHEMERIS_TYPE":0,"CLASSIFICATION_TYPE":"U","NORAD_CAT_ID":38038,"ELEMENT_SET_NO":999,"REV_AT_EPOCH":74495,"BSTAR":0.00018700518,"MEAN_MOTION_DOT":5.24e-6,"MEAN_MOTION_DDOT":0},{"OBJECT_NAME":"CZ-6A DEB","OBJECT_ID":"2024-140UT","EPOCH":"2026-03-09T13:56:20.393376","MEAN_MOTION":14.50206359,"ECCENTRICITY":0.0076606,"INCLINATION":88.8465,"RA_OF_ASC_NODE":272.2802,"ARG_OF_PERICENTER":247.2544,"MEAN_ANOMALY":112.0555,"EPHEMERIS_TYPE":0,"CLASSIFICATION_TYPE":"U","NORAD_CAT_ID":61330,"ELEMENT_SET_NO":999,"REV_AT_EPOCH":7998,"BSTAR":0.00057883,"MEAN_MOTION_DOT":2.352e-5,"MEAN_MOTION_DDOT":0}]
